ORBCOMM FM37            
1 33064U 08031E   25063.45590956  .00002865  00000+0  41070-3 0  9992
2 33064  48.4383 121.3329 0006650 283.6814  89.6884 14.79109531898545
ORBCOMM FM40            
1 33065U 08031F   25063.47783020  .00003614  00000+0  48660-3 0  9996
2 33065  48.4403 106.9544 0007942 295.5022 201.4638 14.81165879898636
VESSELSAT 1             
1 37840U 11058C   25063.88532324  .00000447  00000+0  99315-4 0  9993
2 37840  19.9633   5.0054 0013795 119.2559 240.9226 14.11317270691554
ORBCOMM FM109           
1 40086U 14040A   25063.41132691  .00001475  00000+0  35548-3 0  9994
2 40086  47.0021 151.0424 0002703 235.0114 125.0518 14.57877309565772
ORBCOMM FM107           
1 40087U 14040B   25063.44450257  .00001431  00000+0  34541-3 0  9993
2 40087  47.0049 151.8854 0001558 207.4847 152.5957 14.57936643565859
ORBCOMM FM106           
1 40088U 14040C   25063.78225261  .00002158  00000+0  39525-3 0  9990
2 40088  47.0612 340.7138 0017505 301.8728  58.0459 14.68999983568124
ORBCOMM FM111           
1 40089U 14040D   25063.73149915  .00004847  00000+0  57719-3 0  9999
2 40089  47.0008 205.0595 0029265  51.9375 308.4155 14.85365048574693
ORBCOMM FM104           
1 40090U 14040E   25063.73063719  .00001421  00000+0  35476-3 0  9999
2 40090  47.0045 182.8976 0015607  88.8650 271.4022 14.56380407565394
